{
  "type": "FeatureCollection",
  "features": [
    {
      "type": "Feature",
      "properties": {
        "norad_id": 39544,
        "name": "FENGYUN 1C DEB",
        "group": "fengyun-1c-debris",
        "lat": 65.96111849344241,
        "lon": 75.82489061682209,
        "alt_km": 894.2117794113519,
        "timestamp": "2025-12-22T20:43:46.138713+00:00",
        "meta_object_name": "FENGYUN 1C DEB",
        "meta_object_id": "1999-025EWM",
        "meta_epoch": "2025-12-18T10:16:20.672256",
        "meta_mean_motion": 14.05533723,
        "meta_eccentricity": 0.00544071,
        "meta_inclination": 98.7417,
        "meta_ra_of_asc_node": 231.3683,
        "meta_arg_of_pericenter": 353.4562,
        "meta_mean_anomaly": 6.589,
        "meta_ephemeris_type": 0,
        "meta_classification_type": "U",
        "meta_norad_cat_id": 39544,
        "meta_element_set_no": 999,
        "meta_rev_at_epoch": 56935,
        "meta_bstar": 0.00032895311,
        "meta_mean_motion_dot": 4.99e-06,
        "meta_mean_motion_ddot": 0,
        "tle_line1": "1 39544U 99025EWM 25352.42801704  .00000499  00000+0  32895-3 0  9994",
        "tle_line2": "2 39544  98.7417 231.3683 0054407 353.4562   6.5890 14.05533723569356"
      },
      "geometry": {
        "type": "Point",
        "coordinates": [
          75.82489061682209,
          65.96111849344241
        ]
      }
    },
    {
      "type": "Feature",
      "properties": {
        "norad_id": 40688,
        "name": "FENGYUN 1C DEB",
        "group": "fengyun-1c-debris",
        "lat": -2.974089925084034,
        "lon": 146.43130017829915,
        "alt_km": 850.2274988087538,
        "timestamp": "2025-12-22T20:43:46.138725+00:00",
        "meta_object_name": "FENGYUN 1C DEB",
        "meta_object_id": "1999-025EWU",
        "meta_epoch": "2025-12-21T04:50:00.684384",
        "meta_mean_motion": 13.83836101,
        "meta_eccentricity": 0.014203,
        "meta_inclination": 98.9696,
        "meta_ra_of_asc_node": 144.3746,
        "meta_arg_of_pericenter": 8.7318,
        "meta_mean_anomaly": 351.626,
        "meta_ephemeris_type": 0,
        "meta_classification_type": "U",
        "meta_norad_cat_id": 40688,
        "meta_element_set_no": 999,
        "meta_rev_at_epoch": 30034,
        "meta_bstar": 0.00031609,
        "meta_mean_motion_dot": 3.37e-06,
        "meta_mean_motion_ddot": 0,
        "tle_line1": "1 40688U 99025EWU 25355.20139681  .00000337  00000+0  31609-3 0  9995",
        "tle_line2": "2 40688  98.9696 144.3746 0142030   8.7318 351.6260 13.83836101300348"
      },
      "geometry": {
        "type": "Point",
        "coordinates": [
          146.43130017829915,
          -2.974089925084034
        ]
      }
    },
    {
      "type": "Feature",
      "properties": {
        "norad_id": 40689,
        "name": "FENGYUN 1C DEB",
        "group": "fengyun-1c-debris",
        "lat": 63.78267999637929,
        "lon": 113.28491995697472,
        "alt_km": 832.3517314903584,
        "timestamp": "2025-12-22T20:43:46.138737+00:00",
        "meta_object_name": "FENGYUN 1C DEB",
        "meta_object_id": "1999-025EWV",
        "meta_epoch": "2025-12-15T14:00:17.692704",
        "meta_mean_motion": 13.64713186,
        "meta_eccentricity": 0.03107205,
        "meta_inclination": 99.1258,
        "meta_ra_of_asc_node": 267.381,
        "meta_arg_of_pericenter": 93.9269,
        "meta_mean_anomaly": 269.7453,
        "meta_ephemeris_type": 0,
        "meta_classification_type": "U",
        "meta_norad_cat_id": 40689,
        "meta_element_set_no": 999,
        "meta_rev_at_epoch": 54922,
        "meta_bstar": 0.0014500265,
        "meta_mean_motion_dot": 1.584e-05,
        "meta_mean_motion_ddot": 0,
        "tle_line1": "1 40689U 99025EWV 25349.58353811  .00001584  00000+0  14500-2 0  9998",
        "tle_line2": "2 40689  99.1258 267.3810 0310720  93.9269 269.7453 13.64713186549229"
      },
      "geometry": {
        "type": "Point",
        "coordinates": [
          113.28491995697472,
          63.78267999637929
        ]
      }
    },
    {
      "type": "Feature",
      "properties": {
        "norad_id": 40691,
        "name": "FENGYUN 1C DEB",
        "group": "fengyun-1c-debris",
        "lat": 60.597837530934086,
        "lon": 12.41568677745153,
        "alt_km": 992.3454621136179,
        "timestamp": "2025-12-22T20:43:46.138747+00:00",
        "meta_object_name": "FENGYUN 1C DEB",
        "meta_object_id": "1999-025EWX",
        "meta_epoch": "2025-12-03T08:15:02.306016",
        "meta_mean_motion": 13.89944729,
        "meta_eccentricity": 0.0128434,
        "meta_inclination": 99.0573,
        "meta_ra_of_asc_node": 9.8547,
        "meta_arg_of_pericenter": 336.6089,
        "meta_mean_anomaly": 22.9259,
        "meta_ephemeris_type": 0,
        "meta_classification_type": "U",
        "meta_norad_cat_id": 40691,
        "meta_element_set_no": 999,
        "meta_rev_at_epoch": 55305,
        "meta_bstar": 0.00023937,
        "meta_mean_motion_dot": 2.71e-06,
        "meta_mean_motion_ddot": 0,
        "tle_line1": "1 40691U 99025EWX 25337.34377669  .00000271  00000+0  23937-3 0  9996",
        "tle_line2": "2 40691  99.0573   9.8547 0128434 336.6089  22.9259 13.89944729553058"
      },
      "geometry": {
        "type": "Point",
        "coordinates": [
          12.41568677745153,
          60.597837530934086
        ]
      }
    },
    {
      "type": "Feature",
      "properties": {
        "norad_id": 40695,
        "name": "FENGYUN 1C DEB",
        "group": "fengyun-1c-debris",
        "lat": -5.456543026718124,
        "lon": -64.60537435203574,
        "alt_km": 813.5846018797774,
        "timestamp": "2025-12-22T20:43:46.138757+00:00",
        "meta_object_name": "FENGYUN 1C DEB",
        "meta_object_id": "1999-025EXB",
        "meta_epoch": "2025-12-22T14:53:14.266464",
        "meta_mean_motion": 14.50985865,
        "meta_eccentricity": 0.02804135,
        "meta_inclination": 99.4259,
        "meta_ra_of_asc_node": 116.031,
        "meta_arg_of_pericenter": 303.6454,
        "meta_mean_anomaly": 53.8273,
        "meta_ephemeris_type": 0,
        "meta_classification_type": "U",
        "meta_norad_cat_id": 40695,
        "meta_element_set_no": 999,
        "meta_rev_at_epoch": 32009,
        "meta_bstar": 0.00019428885,
        "meta_mean_motion_dot": 1.201e-05,
        "meta_mean_motion_ddot": 0,
        "tle_line1": "1 40695U 99025EXB 25356.62030401  .00001201  00000+0  19429-3 0  9997",
        "tle_line2": "2 40695  99.4259 116.0310 0280413 303.6454  53.8273 14.50985865320092"
      },
      "geometry": {
        "type": "Point",
        "coordinates": [
          -64.60537435203574,
          -5.456543026718124
        ]
      }
    },
    {
      "type": "Feature",
      "properties": {
        "norad_id": 40696,
        "name": "FENGYUN 1C DEB",
        "group": "fengyun-1c-debris",
        "lat": -72.96968407430403,
        "lon": 132.36740692519072,
        "alt_km": 896.1347665101257,
        "timestamp": "2025-12-22T20:43:46.138767+00:00",
        "meta_object_name": "FENGYUN 1C DEB",
        "meta_object_id": "1999-025EXC",
        "meta_epoch": "2025-12-17T05:24:20.221920",
        "meta_mean_motion": 13.96744083,
        "meta_eccentricity": 0.00795529,
        "meta_inclination": 98.9563,
        "meta_ra_of_asc_node": 337.8647,
        "meta_arg_of_pericenter": 345.1128,
        "meta_mean_anomaly": 14.7694,
        "meta_ephemeris_type": 0,
        "meta_classification_type": "U",
        "meta_norad_cat_id": 40696,
        "meta_element_set_no": 999,
        "meta_rev_at_epoch": 55742,
        "meta_bstar": 8.1397831e-05,
        "meta_mean_motion_dot": 7.3e-07,
        "meta_mean_motion_ddot": 0,
        "tle_line1": "1 40696U 99025EXC 25351.22523405  .00000073  00000+0  81398-4 0  9991",
        "tle_line2": "2 40696  98.9563 337.8647 0079552 345.1128  14.7694 13.96744083557426"
      },
      "geometry": {
        "type": "Point",
        "coordinates": [
          132.36740692519072,
          -72.96968407430403
        ]
      }
    },
    {
      "type": "Feature",
      "properties": {
        "norad_id": 41003,
        "name": "FENGYUN 1C DEB",
        "group": "fengyun-1c-debris",
        "lat": 50.408888221347624,
        "lon": -93.98466718114433,
        "alt_km": 688.3172239960168,
        "timestamp": "2025-12-22T20:43:46.138777+00:00",
        "meta_object_name": "FENGYUN 1C DEB",
        "meta_object_id": "1999-025EXH",
        "meta_epoch": "2025-12-18T12:10:10.012512",
        "meta_mean_motion": 14.73078069,
        "meta_eccentricity": 0.00691513,
        "meta_inclination": 98.9664,
        "meta_ra_of_asc_node": 272.2138,
        "meta_arg_of_pericenter": 274.1099,
        "meta_mean_anomaly": 85.2204,
        "meta_ephemeris_type": 0,
        "meta_classification_type": "U",
        "meta_norad_cat_id": 41003,
        "meta_element_set_no": 999,
        "meta_rev_at_epoch": 52505,
        "meta_bstar": 0.0031269645,
        "meta_mean_motion_dot": 0.00020893,
        "meta_mean_motion_ddot": 0,
        "tle_line1": "1 41003U 99025EXH 25352.50706033  .00020893  00000+0  31270-2 0  9990",
        "tle_line2": "2 41003  98.9664 272.2138 0069151 274.1099  85.2204 14.73078069525054"
      },
      "geometry": {
        "type": "Point",
        "coordinates": [
          -93.98466718114433,
          50.408888221347624
        ]
      }
    }
  ]
}